GLOBALSTAR M067 [+]     
1 32263U 07048A   24093.57099163 -.00000033  00000+0  47569-3 0  9993
2 32263  51.9714 245.1790 0001676 116.1421 320.0312 12.40641555754795
GLOBALSTAR M070 [+]     
1 32264U 07048B   24093.79771940 -.00000083  00000+0  11707-3 0  9998
2 32264  51.9775  30.0739 0000352 102.0674 279.6505 12.62288924759037
GLOBALSTAR M066 [+]     
1 32265U 07048C   24093.43990035 -.00000066  00000+0  21304-3 0  9993
2 32265  51.9662 253.1603 0001262  93.6484 284.8854 12.62258842760275
GLOBALSTAR M068 [-]     
1 32266U 07048D   24093.59059267 -.00000059  00000+0  24648-3 0  9990
2 32266  51.9877 205.2972 0000713 200.1714 173.6958 12.62783150761896
GLOBALSTAR M079 [+]     
1 37188U 10054A   24093.62130208 -.00000096  00000+0  42550-4 0  9992
2 37188  52.0058  40.9368 0000710  65.2407 105.8294 12.62267756620811
GLOBALSTAR M074 [+]     
1 37189U 10054B   24093.56892797 -.00000100  00000+0  23553-4 0  9992
2 37189  52.0036  40.4878 0000449  75.3347  97.0591 12.62266396621411
GLOBALSTAR M076 [+]     
1 37190U 10054C   24093.88166764 -.00000092  00000+0  67517-4 0  9995
2 37190  52.0050  39.6664 0000923  97.5674 296.9436 12.62276130621536
GLOBALSTAR M077 [+]     
1 37191U 10054D   24093.50271176 -.00000079  00000+0  13638-3 0  9998
2 37191  52.0102 357.5531 0000632  85.4355  85.5076 12.62270902622230
